ID	Direccion	Nombre	Latitud	Longitud
1	Calle 165 # 8A-43	Estación De Policía Usaquén	4.7416959	-74.0259599
2	Carrera 19 # 136-31	CAI Contador	4.7206642	-74.0465529
3	Autopista Norte # 108-96	CAI Navarra	4.6972839	-74.055801
4	Calle 163 # 6A-25	CAI Villa Nidia	4.7375927	-74.0225897
5	Calle 164 # 16C-00	CAI Toberin	4.7435097	-74.0395283
6	Calle 122 # 20-15	CAI Unicentro	4.7020819	-74.0511927
7	Calle 187 # 19-00	CAI Verbenal	4.7645469	-74.0398862
8	Carrera 4 # 187A Bis	CAI Codito	4.763764	-74.024129
9	Carrera 7 # 130-00	CAI Lisboa	4.6549306	74.0554442
10	Carrera 6 con Calle 116	CAI Santa Barbara	4.6929863	-74.0314284
11	Carrera 2 # 56-40	Estación De Policía Chapinero	4.6413995	-74.058852
12	Calle 72 # 7-00	CAI Chile	4.6556849	-74.0557928
13	Carrera 15 # 88-00	CAI El Virrey	4.6425349	-74.0670896
14	Carrera 11 # 87-00	CAI Estadero	4.6706302	-74.0505096
15	Carrera 3B # 64-00	CAI Granada	4.6467263	-74.0569885
16	Calle 64 # 10-00	CAI Lourdes	4.649837	-74.0617812
17	Carrera 11 con Calle 77	CAI Oxy	4.6616532	74.0557086
18	Avenida Circunvalar # 76A-00	CAI Rosales	4.64244	74.0543337
19	Calle 60 # 9-12	CAI Chapinero	4.6459734	-74.0622888
20	Kilometro 3.5 Vía La Calera	CAI La Calera	4.675901	-74.0267965
21	Carrera 1 # 18A-90	Estación de Policía Santa Fé	4.6021754	-74.0658331
22	Calle 2 Bis # 2-04	CAI Girardot	4.5867505	74.0753924
23	Carrera 8 Este con Diagonal 4	CAI Los Laches	4.5853891	-74.0678103
24	Carrera 8 con Calle 2	CAI Las Cruces	4.5837981	-74.0857343
25	Avenida Caracas con Calle 10	CAI San Victorino	4.601195	-74.0817487
26	Carrera 7 con Calle 26	CAI San Diego	4.570298	-74.094855
27	Carrera 13 con Calle 23	CAI Telecom	4.6104992	-74.0732504
28	Carrera 3 con Calle 23	CAI Torres Blancas	4.6069198	-74.0664704
29	Carrera 10 con Calle 17	CAI Colseguros	4.60557	-74.0743156
30	Carrera 8 Este con Calle 1a Bis 00	CAI Dorado	4.5810136	-74.0722037
31	Av. Circunvalar con Calle 20	CAI Monserrate	4.6478177	-74.0506161
32	Calle 6 # 6-37 Este	CAI Guavio	4.5890054	-74.0679719
33	Kilometro 5 Vía Choachi	CAI Mirador	4.5949643	-74.0655371
34	Av. 1 de Mayo # 1-90 Este	Estación de Policía San Cristobal	4.6041377	-74.1238941
35	Carrera 7 con Calle 22 A Sur	CAI 20 De Julio	4.5732526	74.0922529
36	Carrea 8 con Calle 1c Sur	CAI Distrital	4.5856057	-74.0844433
37	Carrera 3A con Calle 31 C	CAI Bello Horizonte	4.5884911	-74.0758415
38	Carrera 2A # 38-20 Sur	CAI Guacamayas	4.5690772	-74.0863033
39	Calle 46b Bis con Carrera 3B	CAI La Victoria	4.5392587	-74.0812276
40	Calle 56 Sur # 14a-11 Este	CAI Los Libertadores	4.5330775	-74.0906946
41	Calle 48 Sur # 13B-20 Este	CAI Altamira	4.5384477	-74.0872134
42	Calle 74 Sur con Carrera 15 Este	CAI Juan Rey	4.6610002	-74.060366
43	Calle 30 # 9a-00 Este	CAI Ramajal	4.5595418	-74.0843758
44	Avenida Usme # 96a-97 Sur	Estación de Policía Usme	4.516788	-74.116996
45	Carrera 3 con Calle 71F Sur	CAI La Aurora	4.5209028	-74.120726
46	Cr 1 B-Bis 68b-54 Sur Este	CAI Santa Marta	4.5264631	-74.1170521
47	Calle 75 Sur # 1d-12 Sur	CAI Santa Librada	4.5144809	-74.1166979
48	Carrera 3d Con Calle 91 Sur	CAI Yomasa	4.5032822	-74.1107325
49	Carrera 5 Con Cl 6 Usme Centro	CAI Usme	4.5402216	-74.1172329
50	Carrera 3 Bis Este Con Calle 111 Sur	CAI Aantonio José De Sucre	4.491057	-74.1154719
51	Carrera 6 Este Con Calle 100 Sur	CAI Nuevo Porvenir	4.491917	-74.104271
52	Transversal 2 Este # 53d-82 Sur	CAI Danubio Azul	4.5870788	-74.1879462
53	Transversal 33 # 48c-21 Sur	Estación de Policía Tunjuelito	4.5855283	-74.1332516
54	Diagonal 51 con Carrera 18a-20 Sur	CAI San Carlos	4.5671004	-74.1293148
55	Calle 48c con Carrera 24 Sur (Esquina)	CAI Tunal	4.5769997	-74.1299519
56	Transv. 44 Sur con Carrera 53 Sur (Esquina)	CAI Venecia	4.5882326	-74.141226
57	Calle 65J Sur # 77n-23	Estación de Policía Bosa	4.6001443	-74.1865325
58	Calle 57B Sur # 71b -03	CAI Villa Del Rio	4.5996001	-74.1622303
59	Carrera 78c con Calle 69B Bis Sur	CAI Piamonte	4.6020811	-74.1901058
60	Carrera 87J con Calle 72 C Sur	CAI Laureles	4.6186934	-74.1965945
61	Carrera 88C con Calle 59 Sur	CAI Libertad	4.6262675	-74.1908342
62	Carrera 87J con Calle 49c Bis Sur	CAI Brasilia	4.628398	-74.1772926
63	Carrera 77G con Calle 63 Sur	CAI La Estación	4.5973947	-74.179371
64	Calle 63 con Carrera 81g Sur	CAI Antonia Santos	4.6129192	-74.1870058
65	Carrera 80I # 79A Sur	CAI San José	4.5680392	-74.1704982
66	Carrera 97 con Calle 69 Sur	CAI Metrovivienda	4.6939117	-74.0804946
67	Calle 41D Sur # 78N-05	Estación de Policía Kennedy	4.6202813	-74.1596611
68	Avenida Boyacá con Av. 1 de Mayo	CAI Plaza De Las Américas	4.617243	-74.137631
69	Avenida 1 de Mayo # 73-25	CAI Oneida	4.5706027	-74.0885441
70	Calle 26 Sur con Carrera 87	CAI Patio Bonito	4.6389261	-74.1609177
71	Calle 46 Sur con Carrera 81H	CAI Britalia	4.6242767	-74.1712528
72	Diagonal 38 con Carrera 80	CAI Caldas	4.6275396	-74.1580393
73	Carrera 80 con Calle 56A	CAI Roma	4.6140101	-74.1753566
74	Carrera 78B # 0-26	CAI Techo	4.6261531	-74.1468907
75	Calle 9 # 78C-15 Sur	CAI Castilla	4.6420956	-74.1411568
76	Carrera 52 Sur con Calle 49	CAI Socorro	4.6420956	-74.1411568
77	Carrera 74 con Calle 43 Sur	CAI Timiza	4.6096298	-74.1591104
78	Av. Boyacá con Calle 44 Sur	CAI Delicias	4.5991346	-74.1449526
79	Carrera 68I # 34-00 Sur	CAI Villa Claudia	4.6096497	-74.1354177
80	Carrera 95 con Calle 42A Sur	CAI Bellavista	4.6437841	-74.1755516
81	Calle 6D con Carrera 87A-05 Sur	CAI Tintal	4.645097	-74.1546144
82	Trasversal 70 con Calle 9A Sur	CAI Marsella	4.6354369	-74.1297382
83	Carrera 98 # 16B-50	Estación de Policía Fontibón	4.6683357	-74.1483223
84	Carrera 68d # 21-10	CAI Granjas	4.6482076	-74.1150906
85	Carrera 114 con Calle 16-99	CAI Macarena	4.6816891	-74.1542307
86	Carrera 74 con 24-00	CAI Modelia	4.6648643	-74.1187389
87	Calle 20D con Carrera 96C	CAI Santander	4.6710598	-74.1379914
88	Carrera 109 con Calle 23-31	CAI Versalles	4.6848486	-74.143506
89	Carrera 106 con Calle 14-99	CAI Sabana Grande	4.6690137	-74.1578949
90	Carrera 80 con Calle 22	CAI Hayuelos	4.6116695	-74.1776661
91	Calle 25 # 68D-00	CAI Ciudad Salitre	4.6559531	-74.1078655
92	Carrera 78A # 70-54	Estación de Policía Engativá	4.690164	-74.1028
93	Transversal 93 # 64G-00	CAI Aalamos	4.6903375	-74.1173454
94	Calle 89 # 95D-75	CAI Bachue	4.7165941	-74.102736
95	Carrera 123 # 64-65	CAI Eengativá	4.7155547	-74.1418022
96	Avenida Calle 72 # 69K-00	CAI Ferias	4.6828425	-74.0905781
97	Carrera 90 con Calle 69a-00	CAI Florida	4.6938477	-74.1110732
98	Av. Boyacá con Calle 52-00	CAI Normandia	4.6702943	-74.1080453
99	Carrera 77A con Calle 64B-00	CAI Villa Luz	4.6702943	-74.1080453
100	Avenida Ciudad de Cali #90-00	CAI Serena	4.7100109	-74.0945967
101	Av. Calle 80 con Transversal 94-00	CAI Quirigua	4.7060977	-74.1079993
102	Calle 8A con Carrera 111C	CAI Ciudadela Colsubsidio	4.721476	-74.115236
103	Carrera 112A # 77A-30	CAI Villas De Granada	4.7169188	-74.1230886
104	Carrera 76 con Calle 75-00	CAI Santa María Del Lago	4.6932869	-74.0966715
105	Calle 67A # 110-00	CAI Jaboque	4.7032195	-74.1289807
106	Carrera 92 # 146-49	Estación de Policía Suba	4.7396809	-74.0853058
107	Carrera 101 # 131A-00	CAI Aaures	4.7334936	-74.0965767
108	Avenida Suba con Calle 104	CAI Andes	4.6919032	-74.0662087
109	Avenida Carrera 58 con Calle 131	CAI Colina Campestre	4.7211414	-74.0675547
110	Calle 139 # 118-03	CAI Gaitana	4.7441435	-74.1052898
111	Calle 164 con Carrera 54	CAI Mazuren	4.7433237	-74.0386706
112	Carrera 93 # 152B-50	CAI El Pinar	4.7270542	-74.09007
113	Carrera 93 Calle 128C-10	CAI Rincón	4.7236076	-74.0916917
114	Carrera 104 # 234-00	CAI Guaymaral	4.8127594	-74.0559804
115	Calle 116 con Carrera 54B	CAI La Alhambra	4.7012384	-74.0651567
116	Calle 172 con Autopista Norte	CAI Villa Del Prado	4.7528806	-74.0461299
117	Calle 127C # 49-00	CAI Tierra Linda	4.7051274	-74.0245879
118	Carrera 136A con Calle 145	CAI Fontanar	4.753613	-74.1102865
119	Calle 169 con Avenida Boyacá	CAI San José De Bavaria	4.755003	74.065254
120	Calle 72 # 62-81	Estación de Policía Barrios Unidos	4.6740457	-74.0816517
121	Calle 68 # 56B-41	CAI Modelo	4.668068	-74.0795411
122	Carrera 24 Con Calle 86A	CAI Polo Club	4.6747779	-74.0626779
123	Calle 94 # 65A-29	CAI Rio Negro	4.684853	-74.072198
124	Calle 71 con Carrera 24	CAI Alcanzares	4.6615399	-74.0681222
125	Carrera 30 con Calle 64	CAI 7 De Agosto	4.658483	-74.077207
126	Carrera 13 # 39-86	Estación de Policía Teusaquillo	4.5990399	-74.0826304
127	Calle 44C # 54-00	CAI Eesmeralda	4.6450849	-74.0925195
128	Calle 53 # 25-01	CAI Galerias	4.641827	-74.0745071
129	Calle 34 # 16-13	CAI Teusaquillo	4.6233199	-74.0714038
130	Carrera 24 # 41-00	CAI Soledad	4.6025858	-74.0933469
131	Carrera 45 # 58A-10	CAI Federman	4.6493847	-74.0832432
132	Calle 60 # 18-50	CAI San Luis	4.647807	-74.0691101
133	Cr 24 # 12-32	Estación de Policía Mártires	4.6089982	-74.0889614
134	Carrera 22 con Calle 24	CAI Samper Mendoza	4.6183922	-74.078354
135	Carrera 25 con Calle 17	CAI Paloquemao	4.6130961	-74.0862515
136	Calle 10 con Carrera 28	CAI Ricaurte	4.6089575	-74.0933408
137	Carrera 27 con Calle 1f	CAI Santa Isabel	4.5982724	-74.1003442
138	Carrera 24 # 18-90 Sur	Estación de Policía Antonio Nariño	4.5863589	-74.1028417
139	Calle 11 # 10-03 Sur	CAI Ciudad Berna	4.582159	-74.0900995
140	Diagonal 12 Sur # 16-50	CAI Restrepo	4.5866473	-74.0978859
141	Calle 17A Sur # 24G-18	CAI Valvanera	4.5756494	-74.0882345
142	Calle 36 Sur por Carrera 34D Esquina	CAI Villa Mayor	4.5928283	-74.1208616
143	Carrera 39 # 10-25	Estación de Policía Puente Aranda	4.6172075	-74.1026807
144	Calle 43 con Carrera 52C	CAI La Alquería	4.596215	-74.135643
145	Carrera 56 # 3A-96	CAI Galan	4.6282671	-74.1121099
146	Avenida Calle 6 con Transversal 42A	CAI Gorgonzola	4.6191199	-74.10615
147	Calle 8 Sur con Carrera 35 Esquina	CAI Puente Aaranda	4.6019367	-74.1104058
148	Calle 8 Sur con Carrera 34	CAI Santa Matilde	4.6008646	-74.1096245
149	Av. Carrera 68 con Avenida 1 de Mayo	CAI Tejar	4.6254104	-74.1237134
150	Carrera 7 # 6A-12	Estación de Policía Candelaria	4.5915429	-74.0791558
151	Carrera 10 con Calle 7	CAI Bolivia	4.595984	-74.0804483
152	Avenida Jiménez # 5-00	CAI Rosario	4.6007732	-74.0719696
153	Calle 27 Sur # 24C-51	Estación de Policía Rafael Uribe	4.5856479	-74.1105738
154	Calle 44 Sur # 27-50	CAI Claret	4.5835999	-74.1270856
155	Calle 48C Sur # 1-03	CAI DianaTurbay	4.5462838	74.1018024
156	Diagonal 38D Sur # 11-00	CAI Lomas	4.5639513	-74.1076562
157	Calle 49d Bis Sur # 5U-03	CAI Los Molinos	4.5547661	-74.1174823
158	Carrera 24 # 24-06 Sur	CAI Centenario	4.5843902	-74.1073134
159	Calle 31A Sur # 13A-00	CAI Gustavo Restrepo	4.5618817	-74.0925344
160	Transversal 16 # 45F-02 Sur	CAI San Jorge	4.5415578	-74.0824672
161	Carrera 2B # 52B-06	CAI Palermo Sur	4.5820037	-74.0786887
162	Diagonal 70 Sur # 54-14	Estación de Policía Ciudad Bolívar	4.5768753	-74.1643779
163	Calle 70 sur # 18I-70	CAI Vista Hermosa	4.5469552	-74.1480403
164	Calle 64 sur # 71G-54	CAI Lucero	4.5869146	-74.1657256
165	Transversal 18T con Calle 66 Sur	CAI Compartir	4.5569978	-74.1464756
166	Carrera 20C # 67 sur-10	CAI San Francisco	4.5616079	-74.1485396
167	Avenida Villavicencio con 43	CAI La Candelaria	4.6210943	-74.1659653
168	Carrera 73 # 63A-12 sur	CAI Perdomo	4.5866719	-74.1687639
169	Carrera 18b con Calle 80B sur	CAI La Joya	4.5376689	-74.1433861
170	Carrera 77C # 69A-05	CAI Santo Domingo	4.5780602	-74.1783637
171	Carrera 42 # 73-00 sur	CAI Arborizadora Alta	4.5682662	-74.1632387
172	Calle 71P # 27M-04 sur	CAI Paraiso	4.5493759	-74.1633208